CCSDS_OMM_VERS = 2.0
CREATION_DATE  = 
ORIGINATOR     = 

OBJECT_NAME    = SL-14 R/B
OBJECT_ID      = 1986-046B
CENTER_NAME    = EARTH
REF_FRAME      = TEME
TIME_SYSTEM    = UTC
MEAN_ELEMENT_THEORY = SGP/SGP4

EPOCH          = 2026-02-19T11:40:46.909920
MEAN_MOTION    = 14.85571689
ECCENTRICITY   = .0021591
INCLINATION    = 82.4797
RA_OF_ASC_NODE = 97.3858
ARG_OF_PERICENTER = 289.3348
MEAN_ANOMALY   = 70.5534

EPHEMERIS_TYPE = 0
CLASSIFICATION_TYPE = U
NORAD_CAT_ID   = 16792
ELEMENT_SET_NO = 999
REV_AT_EPOCH   = 12370
BSTAR          = .44373E-4
MEAN_MOTION_DOT = .409E-5
MEAN_MOTION_DDOT = 0

CCSDS_OMM_VERS = 2.0
CREATION_DATE  = 
ORIGINATOR     = 

OBJECT_NAME    = SL-14 R/B
OBJECT_ID      = 1986-055B
CENTER_NAME    = EARTH
REF_FRAME      = TEME
TIME_SYSTEM    = UTC
MEAN_ELEMENT_THEORY = SGP/SGP4

EPOCH          = 2026-02-19T08:22:26.211936
MEAN_MOTION    = 14.85623476
ECCENTRICITY   = .0019724
INCLINATION    = 82.5230
RA_OF_ASC_NODE = 143.9091
ARG_OF_PERICENTER = 36.7817
MEAN_ANOMALY   = 28.5394

EPHEMERIS_TYPE = 0
CLASSIFICATION_TYPE = U
NORAD_CAT_ID   = 16882
ELEMENT_SET_NO = 999
REV_AT_EPOCH   = 11664
BSTAR          = .53854E-4
MEAN_MOTION_DOT = .492E-5
MEAN_MOTION_DDOT = 0

CCSDS_OMM_VERS = 2.0
CREATION_DATE  = 
ORIGINATOR     = 

OBJECT_NAME    = AJISAI (EGS)
OBJECT_ID      = 1986-061A
CENTER_NAME    = EARTH
REF_FRAME      = TEME
TIME_SYSTEM    = UTC
MEAN_ELEMENT_THEORY = SGP/SGP4

EPOCH          = 2026-02-19T11:45:56.422368
MEAN_MOTION    = 12.44515347
ECCENTRICITY   = .0011234
INCLINATION    = 50.0084
RA_OF_ASC_NODE = 149.3113
ARG_OF_PERICENTER = 240.0707
MEAN_ANOMALY   = 209.0714

EPHEMERIS_TYPE = 0
CLASSIFICATION_TYPE = U
NORAD_CAT_ID   = 16908
ELEMENT_SET_NO = 999
REV_AT_EPOCH   = 46573
BSTAR          = .11287E-3
MEAN_MOTION_DOT = -.81E-6
MEAN_MOTION_DDOT = 0

CCSDS_OMM_VERS = 2.0
CREATION_DATE  = 
ORIGINATOR     = 

OBJECT_NAME    = COSMOS 1812
OBJECT_ID      = 1987-003A
CENTER_NAME    = EARTH
REF_FRAME      = TEME
TIME_SYSTEM    = UTC
MEAN_ELEMENT_THEORY = SGP/SGP4

EPOCH          = 2026-02-19T12:07:50.811744
MEAN_MOTION    = 16.02863420
ECCENTRICITY   = .0003757
INCLINATION    = 82.4739
RA_OF_ASC_NODE = 216.3838
ARG_OF_PERICENTER = 298.0621
MEAN_ANOMALY   = 62.0278

EPHEMERIS_TYPE = 0
CLASSIFICATION_TYPE = U
NORAD_CAT_ID   = 17295
ELEMENT_SET_NO = 999
REV_AT_EPOCH   = 14155
BSTAR          = .72456E-3
MEAN_MOTION_DOT = .433147E-2
MEAN_MOTION_DDOT = .82199E-4

CCSDS_OMM_VERS = 2.0
CREATION_DATE  = 
ORIGINATOR     = 

OBJECT_NAME    = SL-14 R/B
OBJECT_ID      = 1987-024B
CENTER_NAME    = EARTH
REF_FRAME      = TEME
TIME_SYSTEM    = UTC
MEAN_ELEMENT_THEORY = SGP/SGP4

EPOCH          = 2026-02-19T02:56:42.510336
MEAN_MOTION    = 14.86113632
ECCENTRICITY   = .00172847
INCLINATION    = 82.5273
RA_OF_ASC_NODE = 110.2166
ARG_OF_PERICENTER = 326.3927
MEAN_ANOMALY   = 33.6191

EPHEMERIS_TYPE = 0
CLASSIFICATION_TYPE = U
NORAD_CAT_ID   = 17567
ELEMENT_SET_NO = 999
REV_AT_EPOCH   = 8537
BSTAR          = .43912267E-4
MEAN_MOTION_DOT = .41E-5
MEAN_MOTION_DDOT = 0

CCSDS_OMM_VERS = 2.0
CREATION_DATE  = 
ORIGINATOR     = 

OBJECT_NAME    = COSMOS 1833
OBJECT_ID      = 1987-027A
CENTER_NAME    = EARTH
REF_FRAME      = TEME
TIME_SYSTEM    = UTC
MEAN_ELEMENT_THEORY = SGP/SGP4

EPOCH          = 2026-02-19T07:31:19.151904
MEAN_MOTION    = 14.13057314
ECCENTRICITY   = .0024849
INCLINATION    = 70.9231
RA_OF_ASC_NODE = 4.6372
ARG_OF_PERICENTER = 239.6396
MEAN_ANOMALY   = 120.2268

EPHEMERIS_TYPE = 0
CLASSIFICATION_TYPE = U
NORAD_CAT_ID   = 17589
ELEMENT_SET_NO = 999
REV_AT_EPOCH   = 772
BSTAR          = -.89979E-5
MEAN_MOTION_DOT = -.65E-6
MEAN_MOTION_DDOT = 0

CCSDS_OMM_VERS = 2.0
CREATION_DATE  = 
ORIGINATOR     = 

OBJECT_NAME    = SL-16 R/B
OBJECT_ID      = 1987-027B
CENTER_NAME    = EARTH
REF_FRAME      = TEME
TIME_SYSTEM    = UTC
MEAN_ELEMENT_THEORY = SGP/SGP4

EPOCH          = 2026-02-19T03:05:08.567232
MEAN_MOTION    = 14.17164405
ECCENTRICITY   = .00044583
INCLINATION    = 71.0040
RA_OF_ASC_NODE = 315.6082
ARG_OF_PERICENTER = 176.1397
MEAN_ANOMALY   = 183.9762

EPHEMERIS_TYPE = 0
CLASSIFICATION_TYPE = U
NORAD_CAT_ID   = 17590
ELEMENT_SET_NO = 999
REV_AT_EPOCH   = 1271
BSTAR          = .15264013E-3
MEAN_MOTION_DOT = .26E-5
MEAN_MOTION_DDOT = 0

CCSDS_OMM_VERS = 2.0
CREATION_DATE  = 
ORIGINATOR     = 

OBJECT_NAME    = SL-14 R/B
OBJECT_ID      = 1987-038B
CENTER_NAME    = EARTH
REF_FRAME      = TEME
TIME_SYSTEM    = UTC
MEAN_ELEMENT_THEORY = SGP/SGP4

EPOCH          = 2026-02-19T04:12:41.815008
MEAN_MOTION    = 14.85351118
ECCENTRICITY   = .00181064
INCLINATION    = 82.5034
RA_OF_ASC_NODE = 314.2462
ARG_OF_PERICENTER = 222.6820
MEAN_ANOMALY   = 137.2990

EPHEMERIS_TYPE = 0
CLASSIFICATION_TYPE = U
NORAD_CAT_ID   = 17912
ELEMENT_SET_NO = 999
REV_AT_EPOCH   = 7648
BSTAR          = .46783008E-4
MEAN_MOTION_DOT = .427E-5
MEAN_MOTION_DDOT = 0

CCSDS_OMM_VERS = 2.0
CREATION_DATE  = 
ORIGINATOR     = 

OBJECT_NAME    = COSMOS 1844
OBJECT_ID      = 1987-041A
CENTER_NAME    = EARTH
REF_FRAME      = TEME
TIME_SYSTEM    = UTC
MEAN_ELEMENT_THEORY = SGP/SGP4

EPOCH          = 2026-02-19T10:31:51.671136
MEAN_MOTION    = 14.14550224
ECCENTRICITY   = .0029092
INCLINATION    = 70.8982
RA_OF_ASC_NODE = 72.6724
ARG_OF_PERICENTER = 46.8532
MEAN_ANOMALY   = 313.5014

EPHEMERIS_TYPE = 0
CLASSIFICATION_TYPE = U
NORAD_CAT_ID   = 17973
ELEMENT_SET_NO = 999
REV_AT_EPOCH   = 100
BSTAR          = .15919E-3
MEAN_MOTION_DOT = .259E-5
MEAN_MOTION_DDOT = 0

CCSDS_OMM_VERS = 2.0
CREATION_DATE  = 
ORIGINATOR     = 

OBJECT_NAME    = SL-14 R/B
OBJECT_ID      = 1987-055B
CENTER_NAME    = EARTH
REF_FRAME      = TEME
TIME_SYSTEM    = UTC
MEAN_ELEMENT_THEORY = SGP/SGP4

EPOCH          = 2026-02-19T08:35:08.755008
MEAN_MOTION    = 14.85605066
ECCENTRICITY   = .0022264
INCLINATION    = 82.5014
RA_OF_ASC_NODE = 6.3044
ARG_OF_PERICENTER = 75.1784
MEAN_ANOMALY   = 285.1897

EPHEMERIS_TYPE = 0
CLASSIFICATION_TYPE = U
NORAD_CAT_ID   = 18153
ELEMENT_SET_NO = 999
REV_AT_EPOCH   = 6721
BSTAR          = .59278E-4
MEAN_MOTION_DOT = .54E-5
MEAN_MOTION_DDOT = 0

CCSDS_OMM_VERS = 2.0
CREATION_DATE  = 
ORIGINATOR     = 

OBJECT_NAME    = COSMOS 1867
OBJECT_ID      = 1987-060A
CENTER_NAME    = EARTH
REF_FRAME      = TEME
TIME_SYSTEM    = UTC
MEAN_ELEMENT_THEORY = SGP/SGP4

EPOCH          = 2026-02-19T06:39:14.055264
MEAN_MOTION    = 14.31499972
ECCENTRICITY   = .0014227
INCLINATION    = 65.0125
RA_OF_ASC_NODE = 358.2665
ARG_OF_PERICENTER = 277.5381
MEAN_ANOMALY   = 82.4087

EPHEMERIS_TYPE = 0
CLASSIFICATION_TYPE = U
NORAD_CAT_ID   = 18187
ELEMENT_SET_NO = 999
REV_AT_EPOCH   = 1730
BSTAR          = .30914E-4
MEAN_MOTION_DOT = -.18E-6
MEAN_MOTION_DDOT = 0

CCSDS_OMM_VERS = 2.0
CREATION_DATE  = 
ORIGINATOR     = 

OBJECT_NAME    = SL-14 R/B
OBJECT_ID      = 1988-001B
CENTER_NAME    = EARTH
REF_FRAME      = TEME
TIME_SYSTEM    = UTC
MEAN_ELEMENT_THEORY = SGP/SGP4

EPOCH          = 2026-02-19T11:40:31.192896
MEAN_MOTION    = 14.85503816
ECCENTRICITY   = .0016782
INCLINATION    = 82.5117
RA_OF_ASC_NODE = 212.4795
ARG_OF_PERICENTER = 301.1603
MEAN_ANOMALY   = 58.7967

EPHEMERIS_TYPE = 0
CLASSIFICATION_TYPE = U
NORAD_CAT_ID   = 18749
ELEMENT_SET_NO = 999
REV_AT_EPOCH   = 3932
BSTAR          = .53137E-4
MEAN_MOTION_DOT = .483E-5
MEAN_MOTION_DDOT = 0

